{
  "type": "FeatureCollection",
  "features": [
    {
      "type": "Feature",
      "properties": {
        "norad_id": 24946,
        "name": "IRIDIUM 33",
        "group": "iridium-33-debris",
        "lat": -46.73208457564239,
        "lon": -104.45159926600266,
        "alt_km": 777.4536061780964,
        "timestamp": "2025-12-04T10:51:50.490058+00:00",
        "meta_object_name": "IRIDIUM 33",
        "meta_object_id": "1997-051C",
        "meta_epoch": "2025-12-03T23:46:08.899392",
        "meta_mean_motion": 14.35027574,
        "meta_eccentricity": 0.0006169,
        "meta_inclination": 86.3872,
        "meta_ra_of_asc_node": 71.8938,
        "meta_arg_of_pericenter": 234.0934,
        "meta_mean_anomaly": 125.969,
        "meta_ephemeris_type": 0,
        "meta_classification_type": "U",
        "meta_norad_cat_id": 24946,
        "meta_element_set_no": 999,
        "meta_rev_at_epoch": 47709,
        "meta_bstar": 0.00024013,
        "meta_mean_motion_dot": 7.03e-06,
        "meta_mean_motion_ddot": 0,
        "tle_line1": "1 24946U 97051C   25337.99038078  .00000703  00000+0  24013-3 0  9993",
        "tle_line2": "2 24946  86.3872  71.8938 0006169 234.0934 125.9690 14.35027574477091"
      },
      "geometry": {
        "type": "Point",
        "coordinates": [
          -104.45159926600266,
          -46.73208457564239
        ]
      }
    },
    {
      "type": "Feature",
      "properties": {
        "norad_id": 33773,
        "name": "IRIDIUM 33 DEB",
        "group": "iridium-33-debris",
        "lat": -60.56083954971026,
        "lon": 57.69844336535461,
        "alt_km": 760.0955479703916,
        "timestamp": "2025-12-04T10:51:50.490103+00:00",
        "meta_object_name": "IRIDIUM 33 DEB",
        "meta_object_id": "1997-051L",
        "meta_epoch": "2025-12-04T04:29:22.955136",
        "meta_mean_motion": 14.43227722,
        "meta_eccentricity": 0.0011567,
        "meta_inclination": 86.4014,
        "meta_ra_of_asc_node": 64.2131,
        "meta_arg_of_pericenter": 172.7623,
        "meta_mean_anomaly": 187.3747,
        "meta_ephemeris_type": 0,
        "meta_classification_type": "U",
        "meta_norad_cat_id": 33773,
        "meta_element_set_no": 999,
        "meta_rev_at_epoch": 88224,
        "meta_bstar": 0.00064804,
        "meta_mean_motion_dot": 2.2e-05,
        "meta_mean_motion_ddot": 0,
        "tle_line1": "1 33773U 97051L   25338.18707124  .00002200  00000+0  64804-3 0  9994",
        "tle_line2": "2 33773  86.4014  64.2131 0011567 172.7623 187.3747 14.43227722882248"
      },
      "geometry": {
        "type": "Point",
        "coordinates": [
          57.69844336535461,
          -60.56083954971026
        ]
      }
    },
    {
      "type": "Feature",
      "properties": {
        "norad_id": 33775,
        "name": "IRIDIUM 33 DEB",
        "group": "iridium-33-debris",
        "lat": 75.34502924061951,
        "lon": 67.16265408061238,
        "alt_km": 749.1311333146468,
        "timestamp": "2025-12-04T10:51:50.490119+00:00",
        "meta_object_name": "IRIDIUM 33 DEB",
        "meta_object_id": "1997-051N",
        "meta_epoch": "2025-12-04T04:08:13.949952",
        "meta_mean_motion": 14.41439472,
        "meta_eccentricity": 0.0013301,
        "meta_inclination": 86.3643,
        "meta_ra_of_asc_node": 53.2105,
        "meta_arg_of_pericenter": 181.7923,
        "meta_mean_anomaly": 240.6552,
        "meta_ephemeris_type": 0,
        "meta_classification_type": "U",
        "meta_norad_cat_id": 33775,
        "meta_element_set_no": 999,
        "meta_rev_at_epoch": 88017,
        "meta_bstar": 0.0006498,
        "meta_mean_motion_dot": 2.128e-05,
        "meta_mean_motion_ddot": 0,
        "tle_line1": "1 33775U 97051N   25338.17238368  .00002128  00000+0  64980-3 0  9998",
        "tle_line2": "2 33775  86.3643  53.2105 0013301 181.7923 240.6552 14.41439472880179"
      },
      "geometry": {
        "type": "Point",
        "coordinates": [
          67.16265408061238,
          75.34502924061951
        ]
      }
    },
    {
      "type": "Feature",
      "properties": {
        "norad_id": 33776,
        "name": "IRIDIUM 33 DEB",
        "group": "iridium-33-debris",
        "lat": 41.74722326730357,
        "lon": 87.4731151965168,
        "alt_km": 770.7001094266352,
        "timestamp": "2025-12-04T10:51:50.490132+00:00",
        "meta_object_name": "IRIDIUM 33 DEB",
        "meta_object_id": "1997-051P",
        "meta_epoch": "2025-12-04T01:27:18.984960",
        "meta_mean_motion": 14.38208616,
        "meta_eccentricity": 0.0013413,
        "meta_inclination": 86.4038,
        "meta_ra_of_asc_node": 84.4203,
        "meta_arg_of_pericenter": 220.3755,
        "meta_mean_anomaly": 313.0881,
        "meta_ephemeris_type": 0,
        "meta_classification_type": "U",
        "meta_norad_cat_id": 33776,
        "meta_element_set_no": 999,
        "meta_rev_at_epoch": 87957,
        "meta_bstar": 0.00057038,
        "meta_mean_motion_dot": 1.752e-05,
        "meta_mean_motion_ddot": 0,
        "tle_line1": "1 33776U 97051P   25338.06063640  .00001752  00000+0  57038-3 0  9994",
        "tle_line2": "2 33776  86.4038  84.4203 0013413 220.3755 313.0881 14.38208616879573"
      },
      "geometry": {
        "type": "Point",
        "coordinates": [
          87.4731151965168,
          41.74722326730357
        ]
      }
    },
    {
      "type": "Feature",
      "properties": {
        "norad_id": 33777,
        "name": "IRIDIUM 33 DEB",
        "group": "iridium-33-debris",
        "lat": 32.86612511382016,
        "lon": 41.15238428114517,
        "alt_km": 706.7085360647015,
        "timestamp": "2025-12-04T10:51:50.490145+00:00",
        "meta_object_name": "IRIDIUM 33 DEB",
        "meta_object_id": "1997-051Q",
        "meta_epoch": "2025-12-04T04:06:47.905056",
        "meta_mean_motion": 14.5551004,
        "meta_eccentricity": 0.0005147,
        "meta_inclination": 86.3799,
        "meta_ra_of_asc_node": 38.9304,
        "meta_arg_of_pericenter": 289.5346,
        "meta_mean_anomaly": 70.5306,
        "meta_ephemeris_type": 0,
        "meta_classification_type": "U",
        "meta_norad_cat_id": 33777,
        "meta_element_set_no": 999,
        "meta_rev_at_epoch": 88409,
        "meta_bstar": 0.0021194,
        "meta_mean_motion_dot": 9.25e-05,
        "meta_mean_motion_ddot": 0,
        "tle_line1": "1 33777U 97051Q   25338.17138779  .00009250  00000+0  21194-2 0  9997",
        "tle_line2": "2 33777  86.3799  38.9304 0005147 289.5346  70.5306 14.55510040884097"
      },
      "geometry": {
        "type": "Point",
        "coordinates": [
          41.15238428114517,
          32.86612511382016
        ]
      }
    },
    {
      "type": "Feature",
      "properties": {
        "norad_id": 33850,
        "name": "IRIDIUM 33 DEB",
        "group": "iridium-33-debris",
        "lat": 36.411329039417595,
        "lon": 36.446772109797344,
        "alt_km": 756.0453416358914,
        "timestamp": "2025-12-04T10:51:50.490158+00:00",
        "meta_object_name": "IRIDIUM 33 DEB",
        "meta_object_id": "1997-051T",
        "meta_epoch": "2025-12-04T04:16:53.472288",
        "meta_mean_motion": 14.42119045,
        "meta_eccentricity": 0.0011303,
        "meta_inclination": 86.3423,
        "meta_ra_of_asc_node": 33.8604,
        "meta_arg_of_pericenter": 187.9437,
        "meta_mean_anomaly": 225.7004,
        "meta_ephemeris_type": 0,
        "meta_classification_type": "U",
        "meta_norad_cat_id": 33850,
        "meta_element_set_no": 999,
        "meta_rev_at_epoch": 88029,
        "meta_bstar": 0.00075459,
        "meta_mean_motion_dot": 2.501e-05,
        "meta_mean_motion_ddot": 0,
        "tle_line1": "1 33850U 97051T   25338.17839667  .00002501  00000+0  75459-3 0  9999",
        "tle_line2": "2 33850  86.3423  33.8604 0011303 187.9437 225.7004 14.42119045880296"
      },
      "geometry": {
        "type": "Point",
        "coordinates": [
          36.446772109797344,
          36.411329039417595
        ]
      }
    },
    {
      "type": "Feature",
      "properties": {
        "norad_id": 33853,
        "name": "IRIDIUM 33 DEB",
        "group": "iridium-33-debris",
        "lat": -82.80188964159662,
        "lon": -152.91340791302196,
        "alt_km": 754.4508334137981,
        "timestamp": "2025-12-04T10:51:50.490170+00:00",
        "meta_object_name": "IRIDIUM 33 DEB",
        "meta_object_id": "1997-051W",
        "meta_epoch": "2025-12-04T01:16:34.217184",
        "meta_mean_motion": 13.98972091,
        "meta_eccentricity": 0.0206796,
        "meta_inclination": 86.0003,
        "meta_ra_of_asc_node": 353.6212,
        "meta_arg_of_pericenter": 262.6777,
        "meta_mean_anomaly": 150.4676,
        "meta_ephemeris_type": 0,
        "meta_classification_type": "U",
        "meta_norad_cat_id": 33853,
        "meta_element_set_no": 999,
        "meta_rev_at_epoch": 85224,
        "meta_bstar": 0.0041696,
        "meta_mean_motion_dot": 7.249e-05,
        "meta_mean_motion_ddot": 0,
        "tle_line1": "1 33853U 97051W   25338.05317381  .00007249  00000+0  41696-2 0  9992",
        "tle_line2": "2 33853  86.0003 353.6212 0206796 262.6777 150.4676 13.98972091852249"
      },
      "geometry": {
        "type": "Point",
        "coordinates": [
          -152.91340791302196,
          -82.80188964159662
        ]
      }
    }
  ]
}